NORAD_CAT_ID,OBJECT_NAME,OBJECT_TYPE,EPOCH,MEAN_MOTION,ECCENTRICITY,INCLINATION,RA_OF_ASC_NODE,ARG_OF_PERICENTER,MEAN_ANOMALY,BSTAR,MEAN_MOTION_DOT,MEAN_MOTION_DDOT,TLE_LINE0,TLE_LINE1,TLE_LINE2,SEMIMAJOR_AXIS,PERIOD,APOGEE,PERIGEE,DECAYED
53930.0,STARLINK-5010,PAYLOAD,2023-02-24 12:45:26,15.08836255,0.0001738,53.2194,243.0582,80.9006,279.2183,-7.0193e-06,-4e-06,0.0,0 STARLINK-5010,1 53930U 22119AW  23055.53155677 -.00000400  00000-0 -70193-5 0  9990,2 53930  53.2194 243.0582 0001738  80.9006 279.2183 15.08836255 24520,6917.892,95.438,540.959,538.555,0.0
53930.0,STARLINK-5010,PAYLOAD,2023-02-24 19:06:58,15.0883631,0.0001271,53.218,241.8685,84.0028,276.1109,6.283e-07,-2.78e-06,0.0,0 STARLINK-5010,1 53930U 22119AW  23055.79651604 -.00000278  00000-0  62830-6 0  9991,2 53930  53.2180 241.8685 0001271  84.0028 276.1109 15.08836310 24140,6917.892,95.438,540.636,538.877,0.0
53930.0,STARLINK-5010,PAYLOAD,2023-02-25 12:36:13,15.08838156,0.0001228,53.2182,238.5978,81.7848,278.3284,-4.5161e-05,-1.006e-05,0.0,0 STARLINK-5010,1 53930U 22119AW  23056.52515887 -.00001006  00000-0 -45161-4 0  9992,2 53930  53.2182 238.5978 0001228  81.7848 278.3284 15.08838156 24672,6917.886,95.438,540.601,538.902,0.0
53930.0,STARLINK-5010,PAYLOAD,2023-02-25 18:57:45,15.08841982,0.0001189,53.218,237.408,80.5009,279.6117,-9.5735e-06,-4.4e-06,0.0,0 STARLINK-5010,1 53930U 22119AW  23056.79011521 -.00000440  00000-0 -95735-5 0  9991,2 53930  53.2180 237.4080 0001189  80.5009 279.6117 15.08841982 24719,6917.874,95.437,540.562,538.917,0.0
53930.0,STARLINK-5010,PAYLOAD,2023-02-25 22:08:32,15.08844189,0.000124,53.2186,236.8134,81.5135,278.5998,1.2693e-05,-8.6e-07,0.0,0 STARLINK-5010,1 53930U 22119AW  23056.92259304 -.00000086  00000-0  12693-4 0  9995,2 53930  53.2186 236.8134 0001240  81.5135 278.5998 15.08844189 24310,6917.868,95.437,540.59,538.875,0.0
53930.0,STARLINK-5010,PAYLOAD,2023-02-26 04:30:04,15.08855247,0.0001222,53.2194,235.6245,86.6225,273.4907,-0.00025372,-4.325e-05,0.0,0 STARLINK-5010,1 53930U 22119AW  23057.18755403 -.00004325  00000-0 -25372-3 0  9993,2 53930  53.2194 235.6245 0001222  86.6225 273.4907 15.08855247 24776,6917.834,95.437,540.544,538.853,0.0
53930.0,STARLINK-5010,PAYLOAD,2023-02-26 20:23:55,15.08844134,0.0001224,53.2185,232.6506,76.9442,283.1687,9.3537e-05,1.201e-05,0.0,0 STARLINK-5010,1 53930U 22119AW  23057.84995071  .00001201  00000-0  93537-4 0  9990,2 53930  53.2185 232.6506 0001224  76.9442 283.1687 15.08844134 24875,6917.868,95.437,540.58,538.886,0.0
53930.0,STARLINK-5010,PAYLOAD,2023-02-27 04:20:51,15.08838606,9.96e-05,53.2167,231.1628,76.4489,283.6614,5.8879e-05,6.49e-06,0.0,0 STARLINK-5010,1 53930U 22119AW  23058.18115489  .00000649  00000-0  58879-4 0  9990,2 53930  53.2167 231.1628 0000996  76.4489 283.6614 15.08838606 24507,6917.885,95.438,540.439,539.061,0.0
53930.0,STARLINK-5010,PAYLOAD,2023-02-27 13:53:10,15.08839715,0.0001123,53.2184,229.378,81.0608,279.0511,-1.2686e-06,-3.08e-06,0.0,0 STARLINK-5010,1 53930U 22119AW  23058.57859728 -.00000308  00000-0 -12686-5 0  9995,2 53930  53.2184 229.3780 0001123  81.0608 279.0511 15.08839715 24981,6917.881,95.438,540.523,538.969,0.0
53930.0,STARLINK-5010,PAYLOAD,2023-02-28 10:33:11,15.08834932,0.0001488,53.2182,225.5174,81.5156,278.6005,1.1707e-05,-1.02e-06,0.0,0 STARLINK-5010,1 53930U 22119AW  23059.43971962 -.00000102  00000-0  11707-4 0  9999,2 53930  53.2182 225.5174 0001488  81.5156 278.6005 15.08834932 24698,6917.896,95.438,540.79,538.731,0.0
53930.0,STARLINK-5010,PAYLOAD,2023-02-28 18:30:08,15.08829268,0.0001287,53.2178,224.0271,74.8629,285.2506,-0.00012626,-2.296e-05,0.0,0 STARLINK-5010,1 53930U 22119AW  23059.77092953 -.00002296  00000-0 -12626-3 0  9997,2 53930  53.2178 224.0271 0001287  74.8629 285.2506 15.08829268 24744,6917.913,95.438,540.669,538.888,0.0
53930.0,STARLINK-5010,PAYLOAD,2023-02-28 20:05:31,15.08831694,0.0001329,53.2187,223.7298,69.7637,290.3498,-0.00010783,-2.003e-05,0.0,0 STARLINK-5010,1 53930U 22119AW  23059.83716704 -.00002003  00000-0 -10783-3 0  9999,2 53930  53.2187 223.7298 0001329  69.7637 290.3498 15.08831694 25179,6917.906,95.438,540.69,538.851,0.0
53930.0,STARLINK-5010,PAYLOAD,2023-03-01 16:45:31,15.08842067,0.0001407,53.2188,219.8648,77.5566,282.5583,3.5926e-05,2.84e-06,0.0,0 STARLINK-5010,1 53930U 22119AW  23060.69827815  .00000284  00000-0  35926-4 0  9995,2 53930  53.2188 219.8648 0001407  77.5566 282.5583 15.08842067 24881,6917.874,95.437,540.712,538.766,0.0
53930.0,STARLINK-5010,PAYLOAD,2023-03-01 19:56:16,15.08856093,0.0001292,53.2185,219.2695,78.8668,281.2469,5.7741e-05,6.32e-06,0.0,0 STARLINK-5010,1 53930U 22119AW  23060.83074769  .00000632  00000-0  57741-4 0  9999,2 53930  53.2185 219.2695 0001292  78.8668 281.2469 15.08856093 25326,6917.831,95.437,540.59,538.802,0.0
53930.0,STARLINK-5010,PAYLOAD,2023-03-02 19:47:04,15.08836599,0.0001429,53.2187,214.8086,77.3415,282.7737,0.00011084,1.476e-05,0.0,0 STARLINK-5010,1 53930U 22119AW  23061.82436024  .00001476  00000-0  11084-3 0  9991,2 53930  53.2187 214.8086 0001429  77.3415 282.7737 15.08836599 25052,6917.891,95.438,540.744,538.767,0.0
53930.0,STARLINK-5010,PAYLOAD,2023-03-03 10:05:33,15.08846783,0.0001469,53.2175,212.1332,68.6455,291.4694,-5.4453e-05,-1.155e-05,0.0,0 STARLINK-5010,1 53930U 22119AW  23062.42052133 -.00001155  00000-0 -54453-4 0  9997,2 53930  53.2175 212.1332 0001469  68.6455 291.4694 15.08846783 25566,6917.86,95.437,540.741,538.708,0.0
53930.0,STARLINK-5010,PAYLOAD,2023-03-03 16:27:04,15.08858027,0.0001291,53.2188,210.943,84.4173,275.6967,3.0301e-05,1.95e-06,0.0,0 STARLINK-5010,1 53930U 22119AW  23062.68546901  .00000195  00000-0  30301-4 0  9993,2 53930  53.2188 210.9430 0001291  84.4173 275.6967 15.08858027 25180,6917.825,95.436,540.583,538.797,0.0
53930.0,STARLINK-5010,PAYLOAD,2023-03-03 19:37:50,15.08865627,0.0001305,53.2175,210.3485,67.6368,292.4762,0.00010465,1.379e-05,0.0,0 STARLINK-5010,1 53930U 22119AW  23062.81794092  .00001379  00000-0  10465-3 0  9997,2 53930  53.2175 210.3485 0001305  67.6368 292.4762 15.08865627 25628,6917.802,95.436,540.57,538.764,0.0
53930.0,STARLINK-5010,PAYLOAD,2023-03-04 13:07:06,15.08829796,0.0001592,53.2216,207.0813,96.547,263.5703,1.2496e-05,-8.9e-07,0.0,0 STARLINK-5010,1 53930U 22119AW  23063.54660670 -.00000089  00000-0  12496-4 0  9997,2 53930  53.2216 207.0813 0001592  96.5470 263.5703 15.08829796 25738,6917.912,95.438,540.878,538.675,0.0
53930.0,STARLINK-5010,PAYLOAD,2023-03-04 19:28:38,15.08838706,0.0001353,53.2199,205.8901,95.6463,264.4683,5.5296e-06,-2e-06,0.0,0 STARLINK-5010,1 53930U 22119AW  23063.81156193 -.00000200  00000-0  55296-5 0  9998,2 53930  53.2199 205.8901 0001353  95.6463 264.4683 15.08838706 25355,6917.884,95.438,540.685,538.813,0.0
53930.0,STARLINK-5010,PAYLOAD,2023-03-05 01:50:12,15.08827351,0.0001099,53.2169,204.7003,88.1764,271.9354,-9.9964e-05,-1.878e-05,0.0,0 STARLINK-5010,1 53930U 22119AW  23064.07653183 -.00001878  00000-0 -99964-4 0  9990,2 53930  53.2169 204.7003 0001099  88.1764 271.9354 15.08827351 25397,6917.919,95.438,540.544,539.024,0.0
53930.0,STARLINK-5010,PAYLOAD,2023-03-05 09:47:08,15.08829312,0.0001189,53.2192,203.212,109.1985,250.9135,-0.00011392,-2.1e-05,0.0,0 STARLINK-5010,1 53930U 22119AW  23064.40773368 -.00002100  00000-0 -11392-3 0  9992,2 53930  53.2192 203.2120 0001189 109.1985 250.9135 15.08829312 25861,6917.913,95.438,540.601,538.956,0.0
53930.0,STARLINK-5010,PAYLOAD,2023-03-06 01:40:58,15.08854089,0.0001598,53.219,200.2432,105.2316,254.8853,-0.00012192,-2.229e-05,0.0,0 STARLINK-5010,1 53930U 22119AW  23065.07011819 -.00002229  00000-0 -12192-3 0  9993,2 53930  53.2190 200.2432 0001598 105.2316 254.8853 15.08854089 25545,6917.837,95.437,540.808,538.597,0.0
53930.0,STARLINK-5010,PAYLOAD,2023-03-06 11:13:17,15.08842995,0.0001338,53.2196,198.4575,111.8699,248.2435,2.5447e-05,1.17e-06,0.0,0 STARLINK-5010,1 53930U 22119AW  23065.46756217  .00000117  00000-0  25447-4 0  9994,2 53930  53.2196 198.4575 0001338 111.8699 248.2435 15.08842995 25609,6917.871,95.437,540.662,538.811,0.0
53930.0,STARLINK-5010,PAYLOAD,2023-03-06 17:34:49,15.08849863,0.0001662,53.2206,197.2696,98.823,261.2951,8.6679e-05,1.092e-05,0.0,0 STARLINK-5010,1 53930U 22119AW  23065.73251624  .00001092  00000-0  86679-4 0  9993,2 53930  53.2206 197.2696 0001662  98.8230 261.2951 15.08849863 25640,6917.85,95.437,540.865,538.565,0.0
53930.0,STARLINK-5010,PAYLOAD,2023-03-07 01:31:45,15.08840178,7.14e-05,53.2172,195.7795,99.4339,260.6734,-6.792e-05,-1.368e-05,0.0,0 STARLINK-5010,1 53930U 22119AW  23066.06372313 -.00001368  00000-0 -67920-4 0  9995,2 53930  53.2172 195.7795 0000714  99.4339 260.6734 15.08840178 25696,6917.88,95.438,540.239,539.251,0.0
53930.0,STARLINK-5010,PAYLOAD,2023-03-07 07:53:19,15.08821123,0.0001595,53.2218,194.5897,97.2374,262.8799,6.1576e-05,6.92e-06,0.0,0 STARLINK-5010,1 53930U 22119AW  23066.32869832  .00000692  00000-0  61576-4 0  9999,2 53930  53.2218 194.5897 0001595  97.2374 262.8799 15.08821123 25739,6917.938,95.439,540.907,538.7,0.0
53930.0,STARLINK-5010,PAYLOAD,2023-03-07 17:25:37,15.0884048,0.0001641,53.2159,192.806,84.5584,275.5595,-1.773e-05,-5.7e-06,0.0,0 STARLINK-5010,1 53930U 22119AW  23066.72612972 -.00000570  00000-0 -17730-4 0  9994,2 53930  53.2159 192.8060 0001641  84.5584 275.5595 15.08840480 25798,6917.879,95.438,540.879,538.609,0.0
53930.0,STARLINK-5010,PAYLOAD,2023-03-08 01:22:33,15.08832017,0.0001107,53.2183,191.319,102.3279,257.7837,7.5822e-06,-1.67e-06,0.0,0 STARLINK-5010,1 53930U 22119AW  23067.05733178 -.00000167  00000-0  75822-5 0  9991,2 53930  53.2183 191.3190 0001107 102.3279 257.7837 15.08832017 25844,6917.905,95.438,540.536,539.004,0.0
53930.0,STARLINK-5010,PAYLOAD,2023-03-08 17:16:24,15.08850143,8.02e-05,53.219,188.3451,113.9855,246.1221,-4.4466e-05,-9.95e-06,0.0,0 STARLINK-5010,1 53930U 22119AW  23067.71972230 -.00000995  00000-0 -44466-4 0  9997,2 53930  53.2190 188.3451 0000802 113.9855 246.1221 15.08850143 25947,6917.849,95.437,540.269,539.16,0.0
